start=new Date('2022-07-10T00:00:00.000Z').valueOf();
sats=[{"ECCENTRICITY":"0.00017780","MEAN_ELEMENT_THEORY":"SGP4","TIME_SYSTEM":"UTC","OBJECT_TYPE":"PAYLOAD","OBJECT_NAME":"STARLINK-3680","OBJECT_ID":"2022-025P","SITE":"AFETR","ELEMENT_SET_NO":"999","NORAD_CAT_ID":"51969","MEAN_ANOMALY":"114.8208","FILE":"3510681","COUNTRY_CODE":"US","MEAN_MOTION":"15.08765913","RCS_SIZE":"LARGE","MEAN_MOTION_DDOT":"0.0000000000000","TLE_LINE1":"1 51969U 22025P   22190.83334491 -.00011595  00000-0 -71305-3 0  9992","MEAN_MOTION_DOT":"-0.00011595","CLASSIFICATION_TYPE":"U","LAUNCH_DATE":"2022-03-09","SEMIMAJOR_AXIS":"6918.107","BSTAR":"-0.00071305000000","DECAY_DATE":null,"RA_OF_ASC_NODE":"279.4643","REF_FRAME":"TEME","APOAPSIS":"541.202","PERIAPSIS":"538.742","CENTER_NAME":"EARTH","REV_AT_EPOCH":"130","ARG_OF_PERICENTER":"39.2830","GP_ID":"207785862","EPOCH":"2022-07-09T20:00:01.000224","TLE_LINE2":"2 51969  53.2168 279.4643 0001778  39.2830 114.8208 15.08765913  1303","INCLINATION":"53.2168","PERIOD":"95.442","EPHEMERIS_TYPE":"0"},{"REF_FRAME":"TEME","APOAPSIS":"540.905","PERIAPSIS":"538.553","CENTER_NAME":"EARTH","REV_AT_EPOCH":"130","ARG_OF_PERICENTER":"51.1603","GP_ID":"207786113","EPOCH":"2022-07-09T20:00:01.000224","INCLINATION":"53.2166","TLE_LINE2":"2 51970  53.2166 279.4614 0001700  51.1603 222.8536 15.08845311  1302","PERIOD":"95.437","EPHEMERIS_TYPE":"0","MEAN_MOTION_DOT":"-0.00015711","CLASSIFICATION_TYPE":"U","LAUNCH_DATE":"2022-03-09","SEMIMAJOR_AXIS":"6917.864","BSTAR":"-0.00097102000000","DECAY_DATE":null,"RA_OF_ASC_NODE":"279.4614","ELEMENT_SET_NO":"999","NORAD_CAT_ID":"51970","MEAN_ANOMALY":"222.8536","FILE":"3510681","COUNTRY_CODE":"US","MEAN_MOTION":"15.08845311","RCS_SIZE":"LARGE","MEAN_MOTION_DDOT":"0.0000000000000","TLE_LINE1":"1 51970U 22025Q   22190.83334491 -.00015711  00000-0 -97102-3 0  9991","ECCENTRICITY":"0.00017000","MEAN_ELEMENT_THEORY":"SGP4","TIME_SYSTEM":"UTC","OBJECT_TYPE":"PAYLOAD","OBJECT_NAME":"STARLINK-3677","OBJECT_ID":"2022-025Q","SITE":"AFETR"},{"APOAPSIS":"541.031","REF_FRAME":"TEME","CENTER_NAME":"EARTH","REV_AT_EPOCH":"130","PERIAPSIS":"538.426","GP_ID":"207784861","ARG_OF_PERICENTER":"37.0509","EPHEMERIS_TYPE":"0","PERIOD":"95.437","EPOCH":"2022-07-09T20:00:01.000224","INCLINATION":"53.2157","TLE_LINE2":"2 51971  53.2157 279.4622 0001883  37.0509 156.9835 15.08845593  1303","CLASSIFICATION_TYPE":"U","MEAN_MOTION_DOT":"-0.00011130","LAUNCH_DATE":"2022-03-09","SEMIMAJOR_AXIS":"6917.863","DECAY_DATE":null,"BSTAR":"-0.00068214000000","RA_OF_ASC_NODE":"279.4622","ELEMENT_SET_NO":"999","NORAD_CAT_ID":"51971","MEAN_MOTION":"15.08845593","COUNTRY_CODE":"US","MEAN_ANOMALY":"156.9835","FILE":"3510681","TLE_LINE1":"1 51971U 22025R   22190.83334491 -.00011130  00000-0 -68214-3 0  9995","RCS_SIZE":"MEDIUM","MEAN_MOTION_DDOT":"0.0000000000000","ECCENTRICITY":"0.00018830","MEAN_ELEMENT_THEORY":"SGP4","OBJECT_NAME":"STARLINK-3669","TIME_SYSTEM":"UTC","OBJECT_TYPE":"PAYLOAD","SITE":"AFETR","OBJECT_ID":"2022-025R"},{"ECCENTRICITY":"0.00015950","MEAN_ELEMENT_THEORY":"SGP4","OBJECT_NAME":"STARLINK-3671","OBJECT_TYPE":"PAYLOAD","TIME_SYSTEM":"UTC","SITE":"AFETR","OBJECT_ID":"2022-025S","ELEMENT_SET_NO":"999","NORAD_CAT_ID":"51972","MEAN_MOTION":"15.08779305","COUNTRY_CODE":"US","FILE":"3510681","MEAN_ANOMALY":"240.5651","TLE_LINE1":"1 51972U 22025S   22190.83334491 -.00010739  00000-0 -65872-3 0  9997","MEAN_MOTION_DDOT":"0.0000000000000","RCS_SIZE":"LARGE","CLASSIFICATION_TYPE":"U","MEAN_MOTION_DOT":"-0.00010739","LAUNCH_DATE":"2022-03-09","SEMIMAJOR_AXIS":"6918.066","DECAY_DATE":null,"BSTAR":"-0.00065872000000","RA_OF_ASC_NODE":"279.4639","APOAPSIS":"541.034","REF_FRAME":"TEME","REV_AT_EPOCH":"130","CENTER_NAME":"EARTH","PERIAPSIS":"538.827","GP_ID":"207785111","ARG_OF_PERICENTER":"53.5282","EPHEMERIS_TYPE":"0","PERIOD":"95.441","TLE_LINE2":"2 51972  53.2155 279.4639 0001595  53.5282 240.5651 15.08779305  1304","INCLINATION":"53.2155","EPOCH":"2022-07-09T20:00:01.000224"},{"MEAN_ELEMENT_THEORY":"SGP4","ECCENTRICITY":"0.00016780","OBJECT_ID":"2022-025T","SITE":"AFETR","OBJECT_NAME":"STARLINK-3679","TIME_SYSTEM":"UTC","OBJECT_TYPE":"PAYLOAD","NORAD_CAT_ID":"51973","ELEMENT_SET_NO":"999","TLE_LINE1":"1 51973U 22025T   22190.83334491 -.00013980  00000-0 -86173-3 0  9996","RCS_SIZE":"LARGE","MEAN_MOTION_DDOT":"0.0000000000000","COUNTRY_CODE":"US","MEAN_MOTION":"15.08850535","MEAN_ANOMALY":"210.1839","FILE":"3510681","SEMIMAJOR_AXIS":"6917.848","LAUNCH_DATE":"2022-03-09","CLASSIFICATION_TYPE":"U","MEAN_MOTION_DOT":"-0.00013980","RA_OF_ASC_NODE":"279.4655","DECAY_DATE":null,"BSTAR":"-0.00086173000000","CENTER_NAME":"EARTH","REV_AT_EPOCH":"130","PERIAPSIS":"538.552","REF_FRAME":"TEME","APOAPSIS":"540.874","PERIOD":"95.437","EPHEMERIS_TYPE":"0","EPOCH":"2022-07-09T20:00:01.000224","INCLINATION":"53.2164","TLE_LINE2":"2 51973  53.2164 279.4655 0001678  43.8422 210.1839 15.08850535  1309","GP_ID":"207786362","ARG_OF_PERICENTER":"43.8422"},{"SITE":"AFETR","OBJECT_ID":"2022-025U","OBJECT_NAME":"STARLINK-3672","OBJECT_TYPE":"PAYLOAD","TIME_SYSTEM":"UTC","MEAN_ELEMENT_THEORY":"SGP4","ECCENTRICITY":"0.00017230","TLE_LINE1":"1 51974U 22025U   22190.83334491 -.00018161  00000-0 -11273-2 0  9991","MEAN_MOTION_DDOT":"0.0000000000000","RCS_SIZE":"LARGE","MEAN_MOTION":"15.08792089","COUNTRY_CODE":"US","FILE":"3510681","MEAN_ANOMALY":"269.8785","NORAD_CAT_ID":"51974","ELEMENT_SET_NO":"999","RA_OF_ASC_NODE":"279.4741","DECAY_DATE":null,"BSTAR":"-0.00112730000000","LAUNCH_DATE":"2022-03-09","SEMIMAJOR_AXIS":"6918.027","CLASSIFICATION_TYPE":"U","MEAN_MOTION_DOT":"-0.00018161","PERIOD":"95.441","EPHEMERIS_TYPE":"0","INCLINATION":"53.2134","TLE_LINE2":"2 51974  53.2134 279.4741 0001723  44.2162 269.8785 15.08792089  1300","EPOCH":"2022-07-09T20:00:01.000224","GP_ID":"207786613","ARG_OF_PERICENTER":"44.2162","REV_AT_EPOCH":"130","CENTER_NAME":"EARTH","PERIAPSIS":"538.700","REF_FRAME":"TEME","APOAPSIS":"541.084"},{"MEAN_MOTION_DDOT":"0.0000000000000","RCS_SIZE":"LARGE","TLE_LINE1":"1 51975U 22025V   22190.83334491 -.00044878  00000-0 -28224-2 0  9990","FILE":"3510681","MEAN_ANOMALY":"259.5425","COUNTRY_CODE":"US","MEAN_MOTION":"15.08799643","NORAD_CAT_ID":"51975","ELEMENT_SET_NO":"999","SITE":"AFETR","OBJECT_ID":"2022-025V","OBJECT_TYPE":"PAYLOAD","TIME_SYSTEM":"UTC","OBJECT_NAME":"STARLINK-3674","MEAN_ELEMENT_THEORY":"SGP4","ECCENTRICITY":"0.00015690","TLE_LINE2":"2 51975  53.2159 279.4656 0001569  49.3417 259.5425 15.08799643  1300","INCLINATION":"53.2159","EPOCH":"2022-07-09T20:00:01.000224","EPHEMERIS_TYPE":"0","PERIOD":"95.440","ARG_OF_PERICENTER":"49.3417","GP_ID":"207785361","PERIAPSIS":"538.783","REV_AT_EPOCH":"130","CENTER_NAME":"EARTH","REF_FRAME":"TEME","APOAPSIS":"540.954","RA_OF_ASC_NODE":"279.4656","BSTAR":"-0.00282240000000","DECAY_DATE":null,"SEMIMAJOR_AXIS":"6918.004","LAUNCH_DATE":"2022-03-09","MEAN_MOTION_DOT":"-0.00044878","CLASSIFICATION_TYPE":"U"},{"DECAY_DATE":null,"BSTAR":"-0.00036470000000","RA_OF_ASC_NODE":"289.4731","CLASSIFICATION_TYPE":"U","MEAN_MOTION_DOT":"-0.00006085","LAUNCH_DATE":"2022-03-09","SEMIMAJOR_AXIS":"6917.925","GP_ID":"207785611","ARG_OF_PERICENTER":"43.6143","PERIOD":"95.438","EPHEMERIS_TYPE":"0","EPOCH":"2022-07-09T20:00:01.000224","TLE_LINE2":"2 51976  53.2202 289.4731 0001806  43.6143 275.4515 15.08825441  1305","INCLINATION":"53.2202","REF_FRAME":"TEME","APOAPSIS":"541.039","CENTER_NAME":"EARTH","REV_AT_EPOCH":"130","PERIAPSIS":"538.541","OBJECT_NAME":"STARLINK-3663","TIME_SYSTEM":"UTC","OBJECT_TYPE":"PAYLOAD","OBJECT_ID":"2022-025W","SITE":"AFETR","ECCENTRICITY":"0.00018060","MEAN_ELEMENT_THEORY":"SGP4","MEAN_MOTION":"15.08825441","COUNTRY_CODE":"US","MEAN_ANOMALY":"275.4515","FILE":"3510681","TLE_LINE1":"1 51976U 22025W   22190.83334491 -.00006085  00000-0 -36470-3 0  9992","RCS_SIZE":"LARGE","MEAN_MOTION_DDOT":"0.0000000000000","ELEMENT_SET_NO":"999","NORAD_CAT_ID":"51976"},{"MEAN_MOTION_DOT":"-0.00013388","CLASSIFICATION_TYPE":"U","LAUNCH_DATE":"2022-03-09","SEMIMAJOR_AXIS":"6918.078","BSTAR":"-0.00082608000000","DECAY_DATE":null,"RA_OF_ASC_NODE":"269.4871","REF_FRAME":"TEME","APOAPSIS":"540.897","PERIAPSIS":"538.988","REV_AT_EPOCH":"130","CENTER_NAME":"EARTH","ARG_OF_PERICENTER":"53.2729","GP_ID":"207785863","TLE_LINE2":"2 51977  53.2167 269.4871 0001380  53.2729 275.7962 15.08775437  1301","INCLINATION":"53.2167","EPOCH":"2022-07-09T20:00:01.000224","EPHEMERIS_TYPE":"0","PERIOD":"95.442","ECCENTRICITY":"0.00013800","MEAN_ELEMENT_THEORY":"SGP4","OBJECT_TYPE":"PAYLOAD","TIME_SYSTEM":"UTC","OBJECT_NAME":"STARLINK-3660","SITE":"AFETR","OBJECT_ID":"2022-025X","ELEMENT_SET_NO":"999","NORAD_CAT_ID":"51977","FILE":"3510681","MEAN_ANOMALY":"275.7962","MEAN_MOTION":"15.08775437","COUNTRY_CODE":"US","MEAN_MOTION_DDOT":"0.0000000000000","RCS_SIZE":"LARGE","TLE_LINE1":"1 51977U 22025X   22190.83334491 -.00013388  00000-0 -82608-3 0  9991"},{"ELEMENT_SET_NO":"999","NORAD_CAT_ID":"51978","MEAN_MOTION":"15.08762960","COUNTRY_CODE":"US","MEAN_ANOMALY":"321.6627","FILE":"3510681","TLE_LINE1":"1 51978U 22025Y   22190.83334491  .00007606  00000-0  49649-3 0  9994","RCS_SIZE":"LARGE","MEAN_MOTION_DDOT":"0.0000000000000","ECCENTRICITY":"0.00014180","MEAN_ELEMENT_THEORY":"SGP4","OBJECT_NAME":"STARLINK-3666","TIME_SYSTEM":"UTC","OBJECT_TYPE":"PAYLOAD","SITE":"AFETR","OBJECT_ID":"2022-025Y","APOAPSIS":"540.962","REF_FRAME":"TEME","CENTER_NAME":"EARTH","REV_AT_EPOCH":"130","PERIAPSIS":"539.000","GP_ID":"207786114","ARG_OF_PERICENTER":"57.4270","PERIOD":"95.442","EPHEMERIS_TYPE":"0","EPOCH":"2022-07-09T20:00:01.000224","TLE_LINE2":"2 51978  53.2135 289.4732 0001418  57.4270 321.6627 15.08762960  1300","INCLINATION":"53.2135","CLASSIFICATION_TYPE":"U","MEAN_MOTION_DOT":"0.00007606","SEMIMAJOR_AXIS":"6918.116","LAUNCH_DATE":"2022-03-09","DECAY_DATE":null,"BSTAR":"0.00049649000000","RA_OF_ASC_NODE":"289.4732"}];
